satname,norad_id,inclination_deg,eccentricity,mean_motion_rev_per_day,perigee_km,apogee_km,l1,l2
STARLINK-1296,45412,53.1591,0.0002514,15.33575229,463.4353282249431,466.87613581060214,1 45412U 20019BE  26104.32238188  .00028360  00000+0  86963-3 0  9999,2 45412  53.1591 323.3684 0002514 201.3358 158.7540 15.33575229335435
STARLINK-1309,45414,53.0634,0.0005542,15.62172291,377.63734777183436,385.12960026523615,1 45414U 20019BG  26104.86208229  .00069173  00000+0  77168-3 0  9997,2 45414  53.0634 307.8964 0005542 185.0113 175.0846 15.62172291335674
STARLINK-1316,45415,53.1583,0.0002727,15.33866545,462.4233107561913,466.1551700277005,1 45415U 20019BH  26104.88802381  .00027488  00000+0  83562-3 0  9997,2 45415  53.1583 320.7685 0002727 219.4367 140.6438 15.33866545335549
STARLINK-1286,45417,53.0497,0.0003361,15.53860174,403.18801847509894,407.7479577481063,1 45417U 20019BK  26104.85336199  .00026009  00000+0  40318-3 0  9995,2 45417  53.0497 316.5742 0003361 164.1050 196.0066 15.53860174335840
STARLINK-1308,45419,53.0521,0.0005999,15.57551899,390.68165217797014,398.80775564632495,1 45419U 20019BM  26104.82551447  .00055339  00000+0  73858-3 0  9992,2 45419  53.0521 337.6666 0005999 172.9845 187.1251 15.57551899335298
STARLINK-1329,45531,53.0433,0.0001446,15.67083295,366.2784885174915,368.229255557686,1 45531U 20025A   26104.77169596  .00036024  00000+0  33489-3 0  9994,2 45531  53.0433 264.8204 0001446 330.1712  29.9221 15.67083295331093
STARLINK-1338,45532,53.0452,0.0001127,15.61409833,382.8217605414311,384.3458524112111,1 45532U 20025B   26104.75436013  .00069705  00000+0  80122-3 0  9992,2 45532  53.0452 269.5884 0001127 195.5449 164.5529 15.61409833331021
STARLINK-1350,45535,53.0711,9.97e-05,15.37045938,454.16898979986854,455.5314874552505,1 45535U 20025E   26104.36876187  .00005351  00000+0  15592-3 0  9998,2 45535  53.0711 225.4580 0000997 115.6216 244.4890 15.37045938331647
STARLINK-1362,45538,53.1617,0.0003491,15.32203436,466.84927042759955,471.6301088322998,1 45538U 20025H   26104.88845661 -.00170895  00000+0 -55322-2 0  9993,2 45538  53.1617 292.6640 0003491  91.3600 268.7802 15.32203436330722
STARLINK-1368,45540,53.1592,9.28e-05,15.32725788,467.04858791527386,468.31917227061876,1 45540U 20025K   26104.25002477  .00026122  00000+0  82380-3 0  9993,2 45540  53.1592 296.0231 0000928  74.9860 285.1244 15.32725788330618
STARLINK-1371,45542,53.0452,0.0002476,15.53370103,405.21470723376024,408.57465492223037,1 45542U 20025M   26104.85209713  .00056049  00000+0  87263-3 0  9999,2 45542  53.0452 275.8527 0002476 270.3510  89.7216 15.53370103330944
STARLINK-1372,45543,53.158,5.49e-05,15.33156268,466.02660737491806,466.7781377980282,1 45543U 20025N   26104.81219226  .00035077  00000+0  10862-2 0  9994,2 45543  53.1580 293.0836 0000549  74.5098 285.5965 15.33156268329809
STARLINK-1373,45544,53.0464,0.0001731,15.5755372,393.5670400325853,395.9118098509007,1 45544U 20025P   26104.64633226  .00059415  00000+0  79252-3 0  9997,2 45544  53.0464 275.3716 0001731 201.8745 158.2192 15.57553720330932
STARLINK-1327,45555,53.0425,0.0004005,15.600263,384.8713688574653,390.2907090066501,1 45555U 20025AA  26104.14446412  .00073180  00000+0  88605-3 0  9990,2 45555  53.0425 254.6336 0004005 216.8341 143.2397 15.60026300331175
STARLINK-1356,45564,53.048,0.0002874,15.50670632,412.81455844022184,416.7191195668811,1 45564U 20025AK  26104.63484006  .00052896  00000+0  90787-3 0  9990,2 45564  53.0480 261.9707 0002874 206.6634 153.4227 15.50670632331114
STARLINK-1357,45565,53.0476,0.0005956,15.63673233,373.0338260819817,381.08061343655845,1 45565U 20025AL  26104.66680662  .00077623  00000+0  81504-3 0  9992,2 45565  53.0476 222.8986 0005956 303.5508  56.4937 15.63673233331671
STARLINK-1361,45567,53.0467,0.0003066,15.53871829,403.3542243573129,407.51391013574994,1 45567U 20025AN  26104.84399525  .00059820  00000+0  91359-3 0  9997,2 45567  53.0467 260.2152 0003066 162.4340 197.6776 15.53871829331163
STARLINK-1363,45568,53.037,0.0001464,15.87445554,308.4684309300974,310.42655566973554,1 45568U 20025AP  26104.91668980  .00094601  00000+0  34936-3 0  9994,2 45568  53.0370 215.4392 0001464 315.0176 123.2699 15.87445554  5850
STARLINK-1366,45569,53.0377,0.0001277,15.8517122,314.9878449996231,316.6974874063708,1 45569U 20025AQ  26104.00002315  .00070904  00000+0  29403-3 0  9992,2 45569  53.0377 221.2167 0001277 251.9335  89.7322 15.85171220  5921
STARLINK-1376,45570,53.158,0.0002054,15.3362868,463.59114690598835,466.4023062408651,1 45570U 20025AR  26104.86761361  .00036744  00000+0  11202-2 0  9992,2 45570  53.1580 269.3730 0002054 284.1472  75.9302 15.33628680331043
STARLINK-1320,45572,53.0461,0.0002904,15.75088863,342.42610485927344,346.3305417590509,1 45572U 20025AT  26104.41440898  .00051921  00000+0  34294-3 0  9995,2 45572  53.0461 168.6280 0002904 107.3503 252.7833 15.75088863332424
STARLINK-1321,45573,53.0453,0.0002739,15.55042009,400.1734292578458,403.8876050237359,1 45573U 20025AU  26104.76436725  .00056086  00000+0  82162-3 0  9992,2 45573  53.0453 244.9531 0002739 277.0983  82.9715 15.55042009331067
STARLINK-1331,45578,53.0491,0.0004779,15.54701668,399.7792674248776,406.2606972686044,1 45578U 20025AZ  26104.83989442  .00058826  00000+0  87168-3 0  9999,2 45578  53.0491 251.3241 0004779 258.3174 101.7300 15.54701668331291
STARLINK-1333,45580,53.1566,8.23e-05,15.3074633,473.0204150359705,474.1482083638766,1 45580U 20025BB  26104.81107068  .00035485  00000+0  11843-2 0  9998,2 45580  53.1566 270.0143 0000823  71.1094 288.9996 15.30746330331035
STARLINK-1335,45581,53.1552,0.0001107,15.32223685,468.42136420890256,469.9373600514782,1 45581U 20025BC  26104.83030847  .00008246  00000+0  27274-3 0  9992,2 45581  53.1552 267.2559 0001107  27.0952 333.0107 15.32223685331063
STARLINK-1337,45582,53.0493,0.000507,15.6558321,368.1398793084709,374.98407407083414,1 45582U 20025BD  26104.84401537  .00081412  00000+0  79211-3 0  9996,2 45582  53.0493 245.2299 0005070 271.3975  88.6459 15.65583210331361
STARLINK-1347,45586,53.0397,0.0003294,15.61972886,379.73197671075195,384.18552779233596,1 45586U 20025BH  26104.60664713  .00076186  00000+0  85550-3 0  9996,2 45586  53.0397 215.0558 0003294 305.0247  55.0457 15.61972886331761
STARLINK-1364,45589,53.046,0.000453,15.56237104,395.4890599090768,401.628746397334,1 45589U 20025BL  26104.79483512  .00068499  00000+0  95707-3 0  9998,2 45589  53.0460 249.2130 0004530 223.1710 136.8946 15.56237104331301
STARLINK-1365,45590,53.0486,0.0003246,15.51226004,410.94095565384305,415.3498561917668,1 45590U 20025BM  26104.75383811  .00053314  00000+0  89704-3 0  9997,2 45590  53.0486 280.9557 0003246 210.3031 149.7790 15.51226004330876
STARLINK-1443,45660,53.1337,0.0001071,15.28474102,479.63859173412584,481.10768460572217,1 45660U 20035D   26104.71853483  .00025962  00000+0  93369-3 0  9999,2 45660  53.1337 258.3355 0001071 242.2479 117.8412 15.28474102324260
STARLINK-1446,45663,53.0236,0.0003405,15.44489279,430.55998723052653,435.1982892206588,1 45663U 20035G   26104.41999873  .00020026  00000+0  43321-3 0  9992,2 45663  53.0236 189.4493 0003405  27.8690 332.2497 15.44489279325190
STARLINK-1448,45665,53.046,0.0005324,15.60492672,382.631610415101,389.8343115495554,1 45665U 20035J   26104.80660850  .00077167  00000+0  91681-3 0  9997,2 45665  53.0460 237.7882 0005324 258.3995 101.6420 15.60492672324542
STARLINK-1451,45668,53.0523,6.24e-05,15.11980976,529.7282284020739,530.5903837810738,1 45668U 20035M   26104.72880579  .00015095  00000+0  88485-3 0  9993,2 45668  53.0523 263.1076 0000624  88.7756 271.3307 15.11980976324196
STARLINK-1452,45669,53.0286,0.0001346,15.5051066,414.3196761349827,416.1484516253786,1 45669U 20035N   26104.77459281  .00053855  00000+0  92939-3 0  9996,2 45669  53.0286 209.0647 0001346 215.6967 144.3951 15.50510660324953
STARLINK-1453,45670,53.0431,0.000177,15.6098684,383.6082286555211,386.0023102189025,1 45670U 20035P   26104.59737344  .00072219  00000+0  84323-3 0  9990,2 45670  53.0431 199.2946 0001770 356.0525   4.0473 15.60986840324960
STARLINK-1454,45671,53.0469,0.000425,15.58886495,388.0017148025481,393.7553780169965,1 45671U 20035Q   26104.61766036  .00052564  00000+0  66804-3 0  9999,2 45671  53.0469 239.1907 0004250 235.5625 124.4985 15.58886495324508
STARLINK-1456,45673,53.0456,0.0005264,15.567173,393.59872078243734,400.73175898058525,1 45673U 20035S   26104.78331977  .00063701  00000+0  87522-3 0  9996,2 45673  53.0456 232.3120 0005264 314.0732  45.9845 15.56717300324638
STARLINK-1457,45674,53.0414,0.0003653,15.91589189,295.3964897892356,300.2739550949518,1 45674U 20035T   26104.91668980  .00110453  15661-4  34199-3 0  9992,2 45674  53.0414 199.4058 0003653 322.6775 296.9808 15.91589189  5924
STARLINK-1458,45675,53.0491,0.0004723,15.48596311,417.620326429158,424.0426320546503,1 45675U 20035U   26104.76073782  .00048728  00000+0  90054-3 0  9999,2 45675  53.0491 243.5709 0004723 249.2065 110.8437 15.48596311324438
STARLINK-1460,45676,53.1568,0.000106,15.30712005,472.9604476033792,474.4130342364542,1 45676U 20035V   26104.71694022  .00014440  00000+0  49093-3 0  9992,2 45676  53.1568 257.5917 0001060  51.0472 309.0624 15.30712005324232
STARLINK-1392,45677,53.1548,7.66e-05,15.33496374,464.86611167296905,465.91454005929245,1 45677U 20035W   26104.71301054  .00014337  00000+0  44714-3 0  9993,2 45677  53.1548 257.4453 0000766  78.9323 281.1765 15.33496374324271
STARLINK-1394,45679,53.0455,0.0006457,15.56681158,392.89522878157004,401.6449895223286,1 45679U 20035Y   26104.58763110  .00064055  00000+0  88093-3 0  9995,2 45679  53.0455 223.4813 0006457 314.1440  45.9039 15.56681158324732
STARLINK-1402,45685,53.0443,0.0006496,15.50823551,409.9079084268096,418.7326689362644,1 45685U 20035AE  26104.55662643  .00040896  00000+0  70054-3 0  9993,2 45685  53.0443 211.8456 0006496 343.8145  16.2655 15.50823551324907
